0 CZ-2C DEB
1 28481U 04046C   13281.99954682  .00002114  00000-0  70726-3 0  4857
2 28481 098.0174 100.8715 0140519 126.6679 024.2874 14.32852125463792
0 CZ-2C DEB
1 28481U 04046C   13284.14763553  .00002894  00000-0  96325-3 0  4861
2 28481 098.0174 102.8604 0140530 120.2361 304.7127 14.32858838464102
0 CZ-2C DEB
1 28481U 04046C   13286.17019191  .00002337  00000-0  78019-3 0  4871
2 28481 098.0169 104.7337 0140516 114.2000 297.6492 14.32869067464399
0 CZ-2C DEB
1 28481U 04046C   13288.19696860  .00003795  00000-0  12581-2 0  4880
2 28481 098.0164 106.6110 0140522 108.1526 312.4281 14.32880794464680
0 CZ-2C DEB
1 28481U 04046C   13290.42555543  .00002903  00000-0  96539-3 0  4898
2 28481 098.0165 108.6752 0140482 101.4671 288.3478 14.32892583465002
0 CZ-2C DEB
1 28481U 04046C   13292.52937446  .00002629  00000-0  87549-3 0  4905
2 28481 098.0169 110.6239 0140492 095.2367 340.6726 14.32902531465308
0 CZ-2C DEB
1 28481U 04046C   13294.55455633  .00003045  00000-0  10117-2 0  4913
2 28481 098.0173 112.4997 0140484 089.2138 347.4532 14.32911650465597
